H1 CPF 01  gfz 2021 05 13 00  6331 tandemx   
H2 1003001  6202 36605    2021 05 13 00 59 42 2021 05 18 00 00 42   120 1 1  0 0 0
H9
10 0 59350  25902.000000  0   -3301664.846    216286.510  -6049092.717
10 0 59350  26022.000000  0   -4018021.565    544762.143  -5576246.026
10 0 59350  26142.000000  0   -4658868.304    875658.748  -5005920.551
10 0 59350  26262.000000  0   -5213018.269   1201797.211  -4347995.440
10 0 59350  26382.000000  0   -5670890.684   1515886.371  -3613900.654
10 0 59350  26502.000000  0   -6024686.465   1810680.678  -2816426.756
10 0 59350  26622.000000  0   -6268532.944   2079140.896  -1969507.813
10 0 59350  26742.000000  0   -6398593.674   2314595.264  -1087980.130
10 0 59350  26862.000000  0   -6413139.628   2510896.784   -187320.008
10 0 59350  26982.000000  0   -6312578.447   2662571.823    716634.249
10 0 59350  27102.000000  0   -6099439.878   2764956.851   1607968.899
10 0 59350  27222.000000  0   -5778318.389   2814319.850   2470984.072
10 0 59350  27342.000000  0   -5355773.749   2807962.087   3290478.793
10 0 59350  27462.000000  0   -4840193.401   2744298.142   4052026.436
10 0 59350  27582.000000  0   -4241618.280   2622911.717   4742233.239
10 0 59350  27702.000000  0   -3571539.467   2444587.133   5348974.549
10 0 59350  27822.000000  0   -2842670.360   2211316.064   5861606.711
10 0 59350  27942.000000  0   -2068697.726   1926279.074   6271150.804
10 0 59350  28062.000000  0   -1264018.397   1593801.993   6570444.401
10 0 59350  28182.000000  0    -443467.569   1219288.798   6754259.575
10 0 59350  28302.000000  0     377954.860    809132.319   6819387.849
10 0 59350  28422.000000  0    1185357.742    370604.601   6764692.641
10 0 59350  28542.000000  0    1964227.402    -88271.495   6591127.707
10 0 59350  28662.000000  0    2700687.540   -558868.312   6301722.419
10 0 59350  28782.000000  0    3381747.159  -1032114.800   5901533.085
10 0 59350  28902.000000  0    3995532.932  -1498670.113   5397559.996
10 0 59350  29022.000000  0    4531500.401  -1949107.702   4798630.213
10 0 59350  29142.000000  0    4980620.872  -2374105.302   4115249.168
10 0 59350  29262.000000  0    5335542.287  -2764638.328   3359421.261
10 0 59350  29382.000000  0    5590717.943  -3112171.909   2544439.368
10 0 59350  29502.000000  0    5742498.604  -3408846.444   1684649.200
10 0 59350  29622.000000  0    5789188.320  -3647653.551    795193.373
10 0 59350  29742.000000  0    5731060.597  -3822596.656   -108262.726
10 0 59350  29862.000000  0    5570335.153  -3928832.250  -1009814.777
10 0 59350  29982.000000  0    5311114.600  -3962787.945  -1893609.430
10 0 59350  30102.000000  0    4959283.255  -3922253.767  -2744130.889
10 0 59350  30222.000000  0    4522371.235  -3806446.195  -3546478.697
10 0 59350  30342.000000  0    4009387.718  -3616042.526  -4286631.331
10 0 59350  30462.000000  0    3430628.155  -3353185.675  -4951689.698
10 0 59350  30582.000000  0    2797460.816  -3021459.114  -5530096.627
10 0 59350  30702.000000  0    2122098.574  -2625834.567  -6011828.004
10 0 59350  30822.000000  0    1417361.797  -2172594.826  -6388556.093
10 0 59350  30942.000000  0     696434.539  -1669230.613  -6653784.225
10 0 59350  31062.000000  0     -27380.490  -1124314.250  -6802947.785
10 0 59350  31182.000000  0    -740902.910   -547354.410  -6833483.334
10 0 59350  31302.000000  0   -1431308.582     51366.608  -6744867.332
10 0 59350  31422.000000  0   -2086354.929    660971.701  -6538623.611
10 0 59350  31542.000000  0   -2694592.800   1270181.259  -6218299.689
10 0 59350  31662.000000  0   -3245562.721   1867516.538  -5789412.630
10 0 59350  31782.000000  0   -3729974.352   2441511.547  -5259365.032
10 0 59350  31902.000000  0   -4139866.900   2980931.261  -4637329.188
10 0 59350  32022.000000  0   -4468745.505   3474991.295  -3934098.444
10 0 59350  32142.000000  0   -4711690.008   3913574.768  -3161909.683
10 0 59350  32262.000000  0   -4865435.679   4287442.614  -2334238.092
10 0 59350  32382.000000  0   -4928422.365   4588431.205  -1465565.651
10 0 59350  32502.000000  0   -4900811.097   4809633.514   -571128.127
10 0 59350  32622.000000  0   -4784466.188   4945558.469    333356.546
10 0 59350  32742.000000  0   -4582901.670   4992263.710   1231971.700
10 0 59350  32862.000000  0   -4301195.249   4947456.905   2108891.680
10 0 59350  32982.000000  0   -3945868.399   4810563.403   2948670.353
10 0 59350  33102.000000  0   -3524737.966   4582758.862   3736520.623
10 0 59350  33222.000000  0   -3046744.053   4266966.571   4458579.902
10 0 59350  33342.000000  0   -2521758.293   3867819.837   5102157.269
10 0 59350  33462.000000  0   -1960376.331   3391589.551   5655956.845
10 0 59350  33582.000000  0   -1373700.285   2846079.529   6110273.141
10 0 59350  33702.000000  0    -773116.101   2240492.218   6457155.635
10 0 59350  33822.000000  0    -170072.059   1585268.672   6690540.400
10 0 59350  33942.000000  0     424138.946    891906.040   6806351.151
10 0 59350  34062.000000  0     998590.638    172754.424   6802565.367
10 0 59350  34182.000000  0    1542923.098   -559202.209   6679247.474
10 0 59350  34302.000000  0    2047528.991  -1290580.015   6438548.624
10 0 59350  34422.000000  0    2503723.192  -2007839.153   6084671.770
10 0 59350  34542.000000  0    2903894.199  -2697534.885   5623803.789
10 0 59350  34662.000000  0    3241633.860  -3346571.202   5064012.564
10 0 59350  34782.000000  0    3511842.804  -3942452.670   4415111.702
10 0 59350  34902.000000  0    3710811.025  -4473529.875   3688493.500
10 0 59350  35022.000000  0    3836270.156  -4929233.292   2896931.003
10 0 59350  35142.000000  0    3887416.525  -5300289.844   2054353.348
10 0 59350  35262.000000  0    3864904.382  -5578916.986   1175597.355
10 0 59350  35382.000000  0    3770808.740  -5758988.748    276140.127
10 0 59350  35502.000000  0    3608559.394  -5836169.575   -628180.143
10 0 59350  35622.000000  0    3382847.665  -5808014.280  -1521452.504
10 0 59350  35742.000000  0    3099506.070  -5674027.984  -2387981.947
10 0 59350  35862.000000  0    2765367.274  -5435687.645  -3212571.803
10 0 59350  35982.000000  0    2388103.886  -5096423.115  -3980795.291
10 0 59350  36102.000000  0    1976053.769  -4661559.121  -4679248.393
10 0 59350  36222.000000  0    1538036.605  -4138221.091  -5295779.371
10 0 59350  36342.000000  0    1083167.188  -3535208.244  -5819692.502
10 0 59350  36462.000000  0     620667.762  -2862837.475  -6241923.672
10 0 59350  36582.000000  0     159683.361  -2132761.420  -6555185.965
10 0 59350  36702.000000  0    -290895.452  -1357763.778  -6754084.279
10 0 59350  36822.000000  0    -722599.227   -551536.078  -6835198.749
10 0 59350  36942.000000  0   -1127534.066    271560.786  -6797136.782
10 0 59350  37062.000000  0   -1498522.480   1096746.039  -6640553.354
10 0 59350  37182.000000  0   -1829227.552   1909077.644  -6368140.875
10 0 59350  37302.000000  0   -2114258.974   2693715.856  -5984588.200
10 0 59350  37422.000000  0   -2349261.065   3436190.167  -5496509.656
10 0 59350  37542.000000  0   -2530979.849   4122664.688  -4912341.904
10 0 59350  37662.000000  0   -2657309.377   4740198.473  -4242209.882
10 0 59350  37782.000000  0   -2727314.993   5276994.761  -3497760.545
10 0 59350  37902.000000  0   -2741232.290   5722632.455  -2691968.244
10 0 59350  38022.000000  0   -2700442.720   6068278.012  -1838915.529
10 0 59350  38142.000000  0   -2607425.308   6306871.308   -953547.837
10 0 59350  38262.000000  0   -2465684.990   6433277.126    -51409.671
10 0 59350  38382.000000  0   -2279660.797   6444403.842    851632.091
10 0 59350  38502.000000  0   -2054613.018   6339281.585   1739678.423
10 0 59350  38622.000000  0   -1796491.795   6119093.315   2597088.741
10 0 59350  38742.000000  0   -1511792.916   5787162.836   3408764.100
10 0 59350  38862.000000  0   -1207404.747   5348900.843   4160418.733
10 0 59350  38982.000000  0    -890450.071   4811710.159   4838836.008
10 0 59350  39102.000000  0    -568124.124   4184850.572   5432102.671
10 0 59350  39222.000000  0    -247535.384   3479270.161   5929814.471
10 0 59350  39342.000000  0      64446.737   2707405.855   6323255.369
10 0 59350  39462.000000  0     361335.661   1882957.129   6605543.826
10 0 59350  39582.000000  0     637159.901   1020638.813   6771747.601
10 0 59350  39702.000000  0     886581.126    135915.858   6818964.031
10 0 59350  39822.000000  0    1104996.110   -755272.974   6746367.447
10 0 59350  39942.000000  0    1288621.198  -1636801.886   6555223.856
10 0 59350  40062.000000  0    1434558.079  -2492649.395   6248870.509
10 0 59350  40182.000000  0    1540839.705  -3307190.499   5832661.708
10 0 59350  40302.000000  0    1606455.183  -4065484.654   5313879.759
10 0 59350  40422.000000  0    1631354.002  -4753552.679   4701612.377
10 0 59350  40542.000000  0    1616430.151  -5358639.990   4006600.333
10 0 59350  40662.000000  0    1563485.557  -5869463.073   3241053.342
10 0 59350  40782.000000  0    1475172.625  -6276428.869   2418435.128
10 0 59350  40902.000000  0    1354917.858  -6571823.167   1553225.675
10 0 59350  41022.000000  0    1206828.325  -6749965.716    660662.878
10 0 59350  41142.000000  0    1035582.932  -6807325.968   -243532.594
10 0 59350  41262.000000  0     846309.770  -6742596.586  -1143444.326
10 0 59350  41382.000000  0     644454.107  -6556718.457  -2023250.909
10 0 59350  41502.000000  0     435641.770  -6252860.018  -2867510.940
10 0 59350  41622.000000  0     225540.717  -5836354.294  -3661438.633
10 0 59350  41742.000000  0      19723.627  -5314593.793  -4391165.184
10 0 59350  41862.000000  0    -176465.049  -4696885.623  -5043978.933
10 0 59350  41982.000000  0    -358033.980  -3994273.479  -5608540.503
10 0 59350  42102.000000  0    -520459.207  -3219329.999  -6075071.145
10 0 59350  42222.000000  0    -659785.228  -2385924.548  -6435511.269
10 0 59350  42342.000000  0    -772711.565  -1508971.400  -6683648.074
99
